{"type":"FeatureCollection","features":[{"type":"Feature","geometry":{"type":"Polygon","coordinates":[[[-75.0697,40.0409],[-75.0682,40.042],[-75.0656,40.0405],[-75.0709,40.0351],[-75.0644,40.0366],[-75.0636,40.0335],[-75.0624,40.0275],[-75.0637,40.0184],[-75.0668,40.0167],[-75.0706,40.0105],[-75.0784,40.0086],[-75.0775,40.0041],[-75.0864,39.9989],[-75.0881,40.003],[-75.0928,40.0056],[-75.0926,40.0079],[-75.1134,39.9965],[-75.1114,39.9942],[-75.1165,39.9929],[-75.1151,39.9908],[-75.1172,39.99],[-75.1197,39.993],[-75.1308,39.9869],[-75.128,39.9828],[-75.1317,39.9795],[-75.1286,39.9775],[-75.1304,39.9745],[-75.1397,39.9749],[-75.1402,39.9726],[-75.1461,39.9728],[-75.1399,40.0029],[-75.1424,40.002],[-75.1429,40.0026],[-75.1413,40.0032],[-75.1433,40.0035],[-75.1434,40.0051],[-75.1401,40.0204],[-75.1342,40.0196],[-75.1333,40.0238],[-75.1128,40.027],[-75.104,40.0299],[-75.0946,40.0266],[-75.0847,40.0318],[-75.0738,40.0432],[-75.0697,40.0409]]]},"properties":{"district":"7"}},{"type":"Feature","geometry":{"type":"Polygon","coordinates":[[[-75.2063,40.083],[-75.1505,40.0517],[-75.1497,40.0547],[-75.1416,40.0536],[-75.1469,40.0291],[-75.1416,40.0285],[-75.1409,40.0315],[-75.1352,40.0308],[-75.1349,40.0333],[-75.1184,40.0302],[-75.1206,40.0276],[-75.1135,40.029],[-75.1128,40.027],[-75.1333,40.0238],[-75.1342,40.0196],[-75.142,40.0206],[-75.1493,40.018],[-75.1546,39.9939],[-75.1708,39.996],[-75.1689,40.0037],[-75.1722,40.0079],[-75.1669,40.0099],[-75.1701,40.0157],[-75.2066,40.0474],[-75.2099,40.0471],[-75.2137,40.0491],[-75.2235,40.0639],[-75.2204,40.0661],[-75.2205,40.0673],[-75.2256,40.0716],[-75.223,40.0745],[-75.2264,40.0807],[-75.2312,40.083],[-75.228,40.0844],[-75.2306,40.0861],[-75.2236,40.093],[-75.2063,40.083]]]},"properties":{"district":"8"}},{"type":"Feature","geometry":{"type":"Polygon","coordinates":[[[-75.1558,40.0727],[-75.1093,40.0458],[-75.1063,40.0493],[-75.0951,40.0559],[-75.0875,40.0636],[-75.0634,40.0498],[-75.0664,40.0466],[-75.0653,40.046],[-75.0677,40.0435],[-75.0665,40.0429],[-75.0677,40.0416],[-75.0694,40.0407],[-75.0738,40.0432],[-75.0847,40.0318],[-75.0946,40.0266],[-75.1036,40.0299],[-75.1128,40.0273],[-75.1143,40.0292],[-75.1206,40.0276],[-75.1184,40.0302],[-75.1349,40.0333],[-75.1352,40.0308],[-75.1409,40.0315],[-75.1416,40.0285],[-75.1469,40.0291],[-75.1416,40.0536],[-75.1497,40.0547],[-75.1501,40.0516],[-75.1897,40.0735],[-75.1885,40.0729],[-75.1765,40.0847],[-75.1558,40.0727]]]},"properties":{"district":"9"}},{"type":"Feature","geometry":{"type":"Polygon","coordinates":[[[-74.9985,40.1282],[-74.9938,40.1319],[-74.9928,40.1305],[-74.9943,40.1262],[-74.9891,40.1262],[-74.9865,40.123],[-74.9833,40.1236],[-74.9825,40.12],[-74.9727,40.1198],[-74.9692,40.1168],[-74.9646,40.1185],[-74.9631,40.1147],[-74.9642,40.1134],[-74.9637,40.1098],[-74.9656,40.1081],[-74.961,40.1033],[-74.9618,40.0978],[-74.9558,40.0951],[-74.958,40.0905],[-74.9584,40.0841],[-74.9625,40.078],[-74.9709,40.0762],[-74.9711,40.0738],[-74.981,40.0649],[-74.9904,40.0604],[-75.0288,40.0809],[-75.0396,40.0696],[-75.045,40.0585],[-75.0511,40.052],[-75.056,40.0523],[-75.0599,40.0478],[-75.0967,40.069],[-75.0812,40.0841],[-75.0778,40.0858],[-75.0584,40.1058],[-75.0206,40.1323],[-75.015,40.1379],[-74.9985,40.1282]]]},"properties":{"district":"10"}},{"type":"Feature","geometry":{"type":"Polygon","coordinates":[[[-75.1136,39.9945],[-75.1127,39.9935],[-75.1114,39.9942],[-75.0938,39.9744],[-75.1051,39.9716],[-75.1234,39.9638],[-75.1298,39.9602],[-75.1338,39.9543],[-75.1363,39.9466],[-75.1359,39.9316],[-75.13,39.9159],[-75.1297,39.9053],[-75.1655,39.9115],[-75.1645,39.9159],[-75.1713,39.9168],[-75.1667,39.9379],[-75.1614,39.9372],[-75.1609,39.9394],[-75.1579,39.939],[-75.1586,39.9428],[-75.1654,39.9437],[-75.1624,39.9529],[-75.1633,39.9533],[-75.1614,39.9625],[-75.145,39.9611],[-75.1431,39.97],[-75.1351,39.9687],[-75.1259,39.9718],[-75.1264,39.9727],[-75.1253,39.973],[-75.124,39.9726],[-75.1227,39.974],[-75.1318,39.9794],[-75.128,39.9828],[-75.1308,39.9869],[-75.1197,39.993],[-75.1172,39.99],[-75.1151,39.9908],[-75.1165,39.9929],[-75.1136,39.9945]]]},"properties":{"district":"1"}},{"type":"Feature","geometry":{"type":"Polygon","coordinates":[[[-75.1726,39.9487],[-75.1693,39.9488],[-75.1688,39.9515],[-75.1639,39.9509],[-75.1654,39.9437],[-75.1586,39.9428],[-75.159,39.941],[-75.1577,39.9398],[-75.1609,39.9394],[-75.1614,39.9372],[-75.1667,39.9379],[-75.1713,39.9168],[-75.1645,39.9159],[-75.1655,39.9115],[-75.1297,39.9053],[-75.1359,39.8913],[-75.1411,39.8859],[-75.1462,39.8841],[-75.187,39.8806],[-75.2007,39.8744],[-75.212,39.8675],[-75.216,39.8711],[-75.2157,39.8761],[-75.2197,39.8755],[-75.2341,39.8772],[-75.2405,39.8724],[-75.2484,39.8765],[-75.2625,39.8766],[-75.2651,39.8817],[-75.2619,39.8831],[-75.2644,39.8843],[-75.2626,39.8858],[-75.2647,39.8864],[-75.265,39.8877],[-75.2623,39.8885],[-75.2616,39.8919],[-75.259,39.8925],[-75.2568,39.8947],[-75.2574,39.8957],[-75.2556,39.8995],[-75.2513,39.9044],[-75.2535,39.9056],[-75.2503,39.9077],[-75.2499,39.9093],[-75.2512,39.9101],[-75.2471,39.9138],[-75.2475,39.9219],[-75.2443,39.9262],[-75.2445,39.9303],[-75.2422,39.9334],[-75.2375,39.9325],[-75.2361,39.9355],[-75.2332,39.9344],[-75.2284,39.9377],[-75.2232,39.9334],[-75.2246,39.9324],[-75.2233,39.9313],[-75.2159,39.9331],[-75.2216,39.9248],[-75.2221,39.9259],[-75.2277,39.9219],[-75.2258,39.9203],[-75.227,39.9194],[-75.2254,39.92],[-75.2259,39.9185],[-75.2242,39.9178],[-75.2228,39.9199],[-75.205,39.9128],[-75.2019,39.9197],[-75.2037,39.921],[-75.2103,39.9213],[-75.2125,39.9245],[-75.2114,39.928],[-75.2056,39.9356],[-75.2045,39.9427],[-75.201,39.944],[-75.1925,39.9426],[-75.1829,39.9499],[-75.1802,39.9545],[-75.1735,39.9521],[-75.1741,39.9494],[-75.1726,39.9487]]]},"properties":{"district":"2"}},{"type":"Feature","geometry":{"type":"Polygon","coordinates":[[[-75.2305,40.0827],[-75.2264,40.0807],[-75.2231,40.0747],[-75.2256,40.0716],[-75.2204,40.0664],[-75.2236,40.0641],[-75.2181,40.0564],[-75.2171,40.0528],[-75.2099,40.0471],[-75.2066,40.0474],[-75.1701,40.0157],[-75.1669,40.0099],[-75.1722,40.0079],[-75.1689,40.0037],[-75.1708,39.996],[-75.185,39.9979],[-75.189,39.9798],[-75.1844,39.9792],[-75.1854,39.9734],[-75.1863,39.9735],[-75.1762,39.9644],[-75.1835,39.9644],[-75.1908,39.9698],[-75.1931,39.9754],[-75.2037,39.9742],[-75.2135,39.9778],[-75.2122,39.9733],[-75.2184,39.973],[-75.2271,39.9703],[-75.2261,39.9649],[-75.2277,39.9651],[-75.2286,39.9605],[-75.2477,39.9628],[-75.2479,39.964],[-75.2516,39.9654],[-75.2579,39.9636],[-75.2603,39.9663],[-75.2654,39.9652],[-75.2706,39.9687],[-75.2752,39.9694],[-75.2803,39.975],[-75.2073,40.0102],[-75.2062,40.0118],[-75.2123,40.0155],[-75.2189,40.0215],[-75.2321,40.028],[-75.2455,40.0375],[-75.2489,40.0418],[-75.2645,40.054],[-75.2306,40.0861],[-75.228,40.0844],[-75.2309,40.0835],[-75.2305,40.0827]]]},"properties":{"district":"4"}},{"type":"Feature","geometry":{"type":"Polygon","coordinates":[[[-75.1426,40.0022],[-75.1399,40.0029],[-75.1461,39.9728],[-75.1402,39.9726],[-75.1397,39.9749],[-75.1304,39.9745],[-75.1286,39.9775],[-75.1227,39.974],[-75.1344,39.9688],[-75.1431,39.97],[-75.145,39.9611],[-75.1614,39.9625],[-75.1633,39.9533],[-75.1624,39.9532],[-75.1627,39.9517],[-75.1688,39.9515],[-75.1693,39.9488],[-75.1731,39.9488],[-75.1741,39.9494],[-75.1735,39.9521],[-75.1802,39.9545],[-75.1798,39.9598],[-75.1835,39.9644],[-75.1762,39.9644],[-75.1863,39.9735],[-75.1854,39.9734],[-75.1844,39.9792],[-75.189,39.9798],[-75.185,39.9979],[-75.1546,39.9939],[-75.1493,40.018],[-75.142,40.0206],[-75.1401,40.0204],[-75.1434,40.0051],[-75.1433,40.0035],[-75.1413,40.0032],[-75.1426,40.0022]]]},"properties":{"district":"5"}},{"type":"Feature","geometry":{"type":"Polygon","coordinates":[[[-74.9905,40.0604],[-74.981,40.0649],[-74.9805,40.0601],[-74.9852,40.0571],[-74.9834,40.0544],[-74.9797,40.0536],[-74.9747,40.0494],[-74.9762,40.0477],[-74.9806,40.046],[-74.9988,40.0303],[-75.0149,40.0199],[-75.0204,40.0177],[-75.0379,40.0146],[-75.0488,40.0092],[-75.0552,40.0024],[-75.0639,39.9864],[-75.0732,39.9796],[-75.0815,39.9766],[-75.0938,39.9744],[-75.1134,39.9965],[-75.0926,40.0079],[-75.0928,40.0056],[-75.0881,40.003],[-75.0864,39.9989],[-75.0775,40.0041],[-75.0784,40.0086],[-75.0706,40.0105],[-75.0668,40.0167],[-75.0637,40.0184],[-75.0624,40.0271],[-75.0644,40.0366],[-75.0709,40.0351],[-75.0656,40.0405],[-75.0677,40.0416],[-75.0665,40.0429],[-75.0677,40.0435],[-75.0653,40.046],[-75.0664,40.0466],[-75.0634,40.0498],[-75.0599,40.0478],[-75.056,40.0523],[-75.0511,40.052],[-75.0442,40.0594],[-75.0396,40.0696],[-75.0288,40.0809],[-74.9905,40.0604]]]},"properties":{"district":"6"}},{"type":"Feature","geometry":{"type":"Polygon","coordinates":[[[-75.2044,39.9744],[-75.1931,39.9754],[-75.1909,39.9699],[-75.1848,39.9661],[-75.1799,39.9601],[-75.1793,39.9577],[-75.1826,39.9502],[-75.1924,39.9426],[-75.1952,39.9422],[-75.201,39.944],[-75.2048,39.9423],[-75.2056,39.9356],[-75.2114,39.928],[-75.2125,39.9245],[-75.2103,39.9213],[-75.2037,39.921],[-75.2019,39.9197],[-75.205,39.9128],[-75.2228,39.9199],[-75.2242,39.9178],[-75.2259,39.9185],[-75.2254,39.92],[-75.2266,39.9191],[-75.2258,39.9203],[-75.2277,39.9219],[-75.2221,39.9259],[-75.2216,39.9248],[-75.2159,39.9331],[-75.2233,39.9313],[-75.2246,39.9324],[-75.2232,39.9334],[-75.2284,39.9377],[-75.2331,39.9344],[-75.2345,39.9346],[-75.2361,39.9355],[-75.2349,39.9365],[-75.2351,39.9382],[-75.2407,39.9387],[-75.2394,39.9407],[-75.2402,39.9421],[-75.2467,39.9428],[-75.2515,39.9491],[-75.2517,39.9516],[-75.2489,39.9566],[-75.2509,39.959],[-75.2484,39.9604],[-75.2477,39.9628],[-75.2286,39.9605],[-75.2277,39.9651],[-75.2261,39.9649],[-75.2271,39.9703],[-75.2256,39.9705],[-75.2258,39.9714],[-75.2122,39.9733],[-75.2135,39.9778],[-75.2044,39.9744]]]},"properties":{"district":"3"}}]}
